NORAD_CAT_ID,OBJECT_NAME,OBJECT_TYPE,EPOCH,MEAN_MOTION,ECCENTRICITY,INCLINATION,RA_OF_ASC_NODE,ARG_OF_PERICENTER,MEAN_ANOMALY,BSTAR,MEAN_MOTION_DOT,MEAN_MOTION_DDOT,TLE_LINE0,TLE_LINE1,TLE_LINE2,SEMIMAJOR_AXIS,PERIOD,APOGEE,PERIGEE,DECAYED
55919.0,STARLINK-5871,PAYLOAD,2023-09-13 22:26:19,14.98348043,0.0003216,69.9999,73.2581,267.3133,92.7658,0.00012672,1.42e-05,0.0,0 STARLINK-5871,1 55919U 23037F   23256.93494380  .00001420  00000-0  12672-3 0  9990,2 55919  69.9999  73.2581 0003216 267.3133  92.7658 14.98348043 27858,6950.137,96.106,574.237,569.767,0.0
55919.0,STARLINK-5871,PAYLOAD,2023-09-14 12:51:32,14.98314937,0.0002635,70.003,71.7432,251.3449,108.7424,0.00030511,3.548e-05,0.0,0 STARLINK-5871,1 55919U 23037F   23257.53579284  .00003548  00000-0  30511-3 0  9999,2 55919  70.0030  71.7432 0002635 251.3449 108.7424 14.98314937 27609,6950.239,96.108,573.936,570.273,0.0
55919.0,STARLINK-5871,PAYLOAD,2023-09-14 17:39:57,14.9833202,0.0003287,69.9999,71.2378,271.0307,89.0475,-0.00014373,-1.808e-05,0.0,0 STARLINK-5871,1 55919U 23037F   23257.73607671 -.00001808  00000-0 -14373-3 0  9990,2 55919  69.9999  71.2378 0003287 271.0307  89.0475 14.98332020 27970,6950.187,96.107,574.336,569.767,0.0
55919.0,STARLINK-5871,PAYLOAD,2023-09-14 20:52:13,14.98328241,0.000291,70.0008,70.9016,263.953,96.1297,-0.00015161,-1.901e-05,0.0,0 STARLINK-5871,1 55919U 23037F   23257.86959894 -.00001901  00000-0 -15161-3 0  9991,2 55919  70.0008  70.9016 0002910 263.9530  96.1297 14.98328241 27655,6950.198,96.107,574.086,570.041,0.0
55919.0,STARLINK-5871,PAYLOAD,2023-09-15 12:53:33,14.98335033,0.0003369,69.9999,69.2176,271.5108,88.5665,-0.00010753,-1.376e-05,0.0,0 STARLINK-5871,1 55919U 23037F   23258.53719064 -.00001376  00000-0 -10753-3 0  9997,2 55919  69.9999  69.2176 0003369 271.5108  88.5665 14.98335033 27756,6950.177,96.107,574.384,569.701,0.0
55919.0,STARLINK-5871,PAYLOAD,2023-09-15 17:41:57,14.98337644,0.0003271,70.0001,68.7129,268.2935,91.785,-0.00010003,-1.287e-05,0.0,0 STARLINK-5871,1 55919U 23037F   23258.73746796 -.00001287  00000-0 -10003-3 0  9990,2 55919  70.0001  68.7129 0003271 268.2935  91.7850 14.98337644 28122,6950.169,96.107,574.308,569.761,0.0
55919.0,STARLINK-5871,PAYLOAD,2023-09-16 12:55:34,14.98325487,0.0003219,70.0005,66.6935,270.4445,89.6345,5.9036e-05,6.11e-06,0.0,0 STARLINK-5871,1 55919U 23037F   23259.53858951  .00000611  00000-0  59036-4 0  9994,2 55919  70.0005  66.6935 0003219 270.4445  89.6345 14.98325487 27903,6950.207,96.107,574.309,569.835,0.0
55919.0,STARLINK-5871,PAYLOAD,2023-09-16 17:43:58,14.98326606,0.0003225,70.0006,66.1884,269.9167,90.1622,6.6809e-05,7.04e-06,0.0,0 STARLINK-5871,1 55919U 23037F   23259.73886897  .00000704  00000-0  66809-4 0  9995,2 55919  70.0006  66.1884 0003225 269.9167  90.1622 14.98326606 28273,6950.203,96.107,574.31,569.827,0.0
55919.0,STARLINK-5871,PAYLOAD,2023-09-17 12:57:35,14.98330266,0.0003217,70.0008,64.1685,269.8487,90.2304,2.8141e-06,-5.9e-07,0.0,0 STARLINK-5871,1 55919U 23037F   23260.53998886 -.00000059  00000-0  28141-5 0  9999,2 55919  70.0008  64.1685 0003217 269.8487  90.2304 14.98330266 28058,6950.192,96.107,574.293,569.821,0.0
55919.0,STARLINK-5871,PAYLOAD,2023-09-17 17:45:59,14.98331077,0.0003212,70.0008,63.6634,269.6343,90.4448,-2.6624e-06,-1.25e-06,0.0,0 STARLINK-5871,1 55919U 23037F   23260.74026839 -.00000125  00000-0 -26624-5 0  9991,2 55919  70.0008  63.6634 0003212 269.6343  90.4448 14.98331077 28423,6950.19,96.107,574.287,569.822,0.0
55919.0,STARLINK-5871,PAYLOAD,2023-09-18 12:59:35,14.98334529,0.0003263,70.0008,61.644,269.8113,90.2672,5.5948e-05,5.75e-06,0.0,0 STARLINK-5871,1 55919U 23037F   23261.54138293  .00000575  00000-0  55948-4 0  9995,2 55919  70.0008  61.6440 0003263 269.8113  90.2672 14.98334529 28207,6950.179,96.107,574.312,569.776,0.0
55919.0,STARLINK-5871,PAYLOAD,2023-09-18 17:47:59,14.98340163,0.0003122,70.0011,61.1395,268.5274,91.5528,0.0001156,1.287e-05,0.0,0 STARLINK-5871,1 55919U 23037F   23261.74165687  .00001287  00000-0  11560-3 0  9996,2 55919  70.0011  61.1395 0003122 268.5274  91.5528 14.98340163 28578,6950.161,96.106,574.196,569.857,0.0
55919.0,STARLINK-5871,PAYLOAD,2023-09-18 21:00:15,14.98340538,0.0003111,70.0011,60.8027,268.5257,91.5546,0.00011618,1.294e-05,0.0,0 STARLINK-5871,1 55919U 23037F   23261.87517574  .00001294  00000-0  11618-3 0  9998,2 55919  70.0011  60.8027 0003111 268.5257  91.5546 14.98340538 28256,6950.16,96.106,574.187,569.863,0.0
55919.0,STARLINK-5871,PAYLOAD,2023-09-19 09:49:20,14.98329962,0.0002728,70.0019,59.4557,267.6366,92.4481,2.2362e-05,1.74e-06,0.0,0 STARLINK-5871,1 55919U 23037F   23262.40926348  .00000174  00000-0  22362-4 0  9996,2 55919  70.0019  59.4557 0002728 267.6366  92.4481 14.98329962 28672,6950.193,96.107,573.954,570.162,0.0
55919.0,STARLINK-5871,PAYLOAD,2023-09-20 13:03:38,14.98324098,0.0003075,70.0017,56.5958,271.6652,88.4155,-0.00013726,-1.73e-05,0.0,0 STARLINK-5871,1 55919U 23037F   23263.54419237 -.00001730  00000-0 -13726-3 0  9990,2 55919  70.0017  56.5958 0003075 271.6652  88.4155 14.98324098 28849,6950.211,96.107,574.213,569.939,0.0
55919.0,STARLINK-5871,PAYLOAD,2023-09-20 17:52:01,14.98355982,0.0002784,70.0016,56.0906,266.3027,93.7814,-0.00071707,-8.644e-05,0.0,0 STARLINK-5871,1 55919U 23037F   23263.74446711 -.00008644  00000-0 -71707-3 0  9993,2 55919  70.0016  56.0906 0002784 266.3027  93.7814 14.98355982 28879,6950.113,96.105,573.912,570.043,0.0
55919.0,STARLINK-5871,PAYLOAD,2023-09-20 21:04:18,14.9832434,0.0002965,70.0017,55.7537,266.1714,93.9106,-0.00014973,-1.879e-05,0.0,0 STARLINK-5871,1 55919U 23037F   23263.87799361 -.00001879  00000-0 -14973-3 0  9994,2 55919  70.0017  55.7537 0002965 266.1714  93.9106 14.98324340 28553,6950.21,96.107,574.136,570.015,0.0
55919.0,STARLINK-5871,PAYLOAD,2023-09-21 13:05:38,14.98326651,0.0003236,70.0008,54.0688,268.898,91.1809,5.9233e-05,6.14e-06,0.0,0 STARLINK-5871,1 55919U 23037F   23264.54558703  .00000614  00000-0  59233-4 0  9995,2 55919  70.0008  54.0688 0003236 268.8980  91.1809 14.98326651 28656,6950.203,96.107,574.317,569.819,0.0
55919.0,STARLINK-5871,PAYLOAD,2023-09-21 16:17:54,14.98329335,0.0003207,70.001,53.7324,268.0513,92.0278,7.4335e-05,7.94e-06,0.0,0 STARLINK-5871,1 55919U 23037F   23264.67910520  .00000794  00000-0  74335-4 0  9997,2 55919  70.0010  53.7324 0003207 268.0513  92.0278 14.98329335 29017,6950.195,96.107,574.289,569.831,0.0
55919.0,STARLINK-5871,PAYLOAD,2023-09-21 19:30:10,14.98332274,0.0003216,70.001,53.3958,270.2226,89.8564,8.5254e-05,9.24e-06,0.0,0 STARLINK-5871,1 55919U 23037F   23264.81262330  .00000924  00000-0  85254-4 0  9999,2 55919  70.0010  53.3958 0003216 270.2226  89.8564 14.98332274 28693,6950.186,96.107,574.286,569.816,0.0
55919.0,STARLINK-5871,PAYLOAD,2023-09-22 13:07:39,14.98326349,0.0003255,70.0012,51.5444,271.0422,89.0364,0.00010175,1.121e-05,0.0,0 STARLINK-5871,1 55919U 23037F   23265.54698722  .00001121  00000-0  10175-3 0  9997,2 55919  70.0012  51.5444 0003255 271.0422  89.0364 14.98326349 28804,6950.204,96.107,574.331,569.807,0.0
55919.0,STARLINK-5871,PAYLOAD,2023-09-22 17:56:03,14.98330172,0.0003258,70.0012,51.0392,270.3781,89.7005,0.00013434,1.51e-05,0.0,0 STARLINK-5871,1 55919U 23037F   23265.74726391  .00001510  00000-0  13434-3 0  9996,2 55919  70.0012  51.0392 0003258 270.3781  89.7005 14.98330172 29173,6950.192,96.107,574.322,569.793,0.0
55919.0,STARLINK-5871,PAYLOAD,2023-09-22 19:32:11,14.98328831,0.0003162,70.0013,50.8708,269.0653,91.0143,0.00017374,1.981e-05,0.0,0 STARLINK-5871,1 55919U 23037F   23265.81402372  .00001981  00000-0  17374-3 0  9993,2 55919  70.0013  50.8708 0003162 269.0653  91.0143 14.98328831 28840,6950.197,96.107,574.259,569.864,0.0
55919.0,STARLINK-5871,PAYLOAD,2023-09-23 13:09:40,14.9833134,0.0003298,70.001,49.0187,270.9685,89.1096,-1.1455e-05,-2.3e-06,0.0,0 STARLINK-5871,1 55919U 23037F   23266.54838628 -.00000230  00000-0 -11455-4 0  9994,2 55919  70.0010  49.0187 0003298 270.9685  89.1096 14.98331340 28950,6950.189,96.107,574.346,569.762,0.0
55919.0,STARLINK-5871,PAYLOAD,2023-09-23 17:58:04,14.98334057,0.0003239,70.0015,48.5145,272.4957,87.5831,-1.5558e-05,-2.79e-06,0.0,0 STARLINK-5871,1 55919U 23037F   23266.74866416 -.00000279  00000-0 -15558-4 0  9993,2 55919  70.0015  48.5145 0003239 272.4957  87.5831 14.98334057 29326,6950.18,96.107,574.297,569.794,0.0
55919.0,STARLINK-5871,PAYLOAD,2023-09-24 09:59:25,14.98327938,0.0003209,70.0016,46.8312,272.3271,87.7521,-4.8608e-05,-6.73e-06,0.0,0 STARLINK-5871,1 55919U 23037F   23267.41626792 -.00000673  00000-0 -48608-4 0  9999,2 55919  70.0016  46.8312 0003209 272.3271  87.7521 14.98327938 29428,6950.199,96.107,574.295,569.834,0.0
55919.0,STARLINK-5871,PAYLOAD,2023-09-24 13:11:41,14.98327709,0.0003211,70.0014,46.4945,272.2528,87.8264,-5.3733e-05,-7.34e-06,0.0,0 STARLINK-5871,1 55919U 23037F   23267.54978832 -.00000734  00000-0 -53733-4 0  9991,2 55919  70.0014  46.4945 0003211 272.2528  87.8264 14.98327709 29107,6950.2,96.107,574.297,569.833,0.0
55919.0,STARLINK-5871,PAYLOAD,2023-09-24 19:36:13,14.98331478,0.000318,70.0017,45.8213,272.6742,87.4053,8.1819e-06,5e-08,0.0,0 STARLINK-5871,1 55919U 23037F   23267.81682420  .00000005  00000-0  81819-5 0  9992,2 55919  70.0017  45.8213 0003180 272.6742  87.4053 14.98331478 29142,6950.188,96.107,574.263,569.843,0.0
55919.0,STARLINK-5871,PAYLOAD,2023-09-25 10:01:26,14.98331446,0.0003141,70.0017,44.3065,274.4493,85.6308,3.3801e-05,3.1e-06,0.0,0 STARLINK-5871,1 55919U 23037F   23268.41766273  .00000310  00000-0  33801-4 0  9994,2 55919  70.0017  44.3065 0003141 274.4493  85.6308 14.98331446 29576,6950.188,96.107,574.236,569.87,0.0
55919.0,STARLINK-5871,PAYLOAD,2023-09-25 13:13:42,14.98331801,0.0003151,70.0018,43.9701,274.302,85.7779,2.0658e-05,1.54e-06,0.0,0 STARLINK-5871,1 55919U 23037F   23268.55118270  .00000154  00000-0  20658-4 0  9999,2 55919  70.0018  43.9701 0003151 274.3020  85.7779 14.98331801 29258,6950.187,96.107,574.242,569.862,0.0
